{
  "type": "FeatureCollection",
  "features": [
    {
      "type": "Feature",
      "properties": {
        "norad_id": 34079,
        "name": "IRIDIUM 33 DEB",
        "group": "iridium-33-debris",
        "lat": -78.78077199796078,
        "lon": -9.81012028490677,
        "alt_km": 625.596801728324,
        "timestamp": "2025-12-12T09:49:09.116905+00:00",
        "meta_object_name": "IRIDIUM 33 DEB",
        "meta_object_id": "1997-051CN",
        "meta_epoch": "2025-12-12T02:19:21.891360",
        "meta_mean_motion": 14.83502874,
        "meta_eccentricity": 0.0005645,
        "meta_inclination": 86.3781,
        "meta_ra_of_asc_node": 8.9545,
        "meta_arg_of_pericenter": 10.4364,
        "meta_mean_anomaly": 43.223,
        "meta_ephemeris_type": 0,
        "meta_classification_type": "U",
        "meta_norad_cat_id": 34079,
        "meta_element_set_no": 999,
        "meta_rev_at_epoch": 88968,
        "meta_bstar": 0.0022556,
        "meta_mean_motion_dot": 0.00018607,
        "meta_mean_motion_ddot": 0,
        "tle_line1": "1 34079U 97051CN  25346.09678115  .00018607  00000+0  22556-2 0  9995",
        "tle_line2": "2 34079  86.3781   8.9545 0005645  10.4364  43.2230 14.83502874889682"
      },
      "geometry": {
        "type": "Point",
        "coordinates": [
          -9.81012028490677,
          -78.78077199796078
        ]
      }
    },
    {
      "type": "Feature",
      "properties": {
        "norad_id": 34088,
        "name": "IRIDIUM 33 DEB",
        "group": "iridium-33-debris",
        "lat": 2.5413627836789012,
        "lon": 31.036559297573227,
        "alt_km": 600.3567779821724,
        "timestamp": "2025-12-12T09:49:09.116916+00:00",
        "meta_object_name": "IRIDIUM 33 DEB",
        "meta_object_id": "1997-051CX",
        "meta_epoch": "2025-12-12T03:36:20.386080",
        "meta_mean_motion": 14.91344676,
        "meta_eccentricity": 0.000558,
        "meta_inclination": 86.3851,
        "meta_ra_of_asc_node": 30.9947,
        "meta_arg_of_pericenter": 178.9663,
        "meta_mean_anomaly": 234.6455,
        "meta_ephemeris_type": 0,
        "meta_classification_type": "U",
        "meta_norad_cat_id": 34088,
        "meta_element_set_no": 999,
        "meta_rev_at_epoch": 88733,
        "meta_bstar": 0.0035089,
        "meta_mean_motion_dot": 0.00035146,
        "meta_mean_motion_ddot": 0,
        "tle_line1": "1 34088U 97051CX  25346.15023595  .00035146  00000+0  35089-2 0  9990",
        "tle_line2": "2 34088  86.3851  30.9947 0005580 178.9663 234.6455 14.91344676887339"
      },
      "geometry": {
        "type": "Point",
        "coordinates": [
          31.036559297573227,
          2.5413627836789012
        ]
      }
    },
    {
      "type": "Feature",
      "properties": {
        "norad_id": 34091,
        "name": "IRIDIUM 33 DEB",
        "group": "iridium-33-debris",
        "lat": -19.179599583313756,
        "lon": -111.73957589258632,
        "alt_km": 631.074750775364,
        "timestamp": "2025-12-12T09:49:09.116927+00:00",
        "meta_object_name": "IRIDIUM 33 DEB",
        "meta_object_id": "1997-051DA",
        "meta_epoch": "2025-12-11T16:42:44.021376",
        "meta_mean_motion": 14.81703346,
        "meta_eccentricity": 0.00332733,
        "meta_inclination": 86.341,
        "meta_ra_of_asc_node": 67.3114,
        "meta_arg_of_pericenter": 296.9804,
        "meta_mean_anomaly": 62.8021,
        "meta_ephemeris_type": 0,
        "meta_classification_type": "U",
        "meta_norad_cat_id": 34091,
        "meta_element_set_no": 999,
        "meta_rev_at_epoch": 87851,
        "meta_bstar": 0.0060351741,
        "meta_mean_motion_dot": 0.00048284,
        "meta_mean_motion_ddot": 0,
        "tle_line1": "1 34091U 97051DA  25345.69634284  .00048284  00000+0  60352-2 0  9993",
        "tle_line2": "2 34091  86.3410  67.3114 0033273 296.9804  62.8021 14.81703346878514"
      },
      "geometry": {
        "type": "Point",
        "coordinates": [
          -111.73957589258632,
          -19.179599583313756
        ]
      }
    },
    {
      "type": "Feature",
      "properties": {
        "norad_id": 34097,
        "name": "IRIDIUM 33 DEB",
        "group": "iridium-33-debris",
        "lat": 35.47162456813393,
        "lon": 178.83986713219613,
        "alt_km": 819.3205157465854,
        "timestamp": "2025-12-12T09:49:09.116938+00:00",
        "meta_object_name": "IRIDIUM 33 DEB",
        "meta_object_id": "1997-051DG",
        "meta_epoch": "2025-12-12T00:46:57.891936",
        "meta_mean_motion": 14.3476745,
        "meta_eccentricity": 0.0082672,
        "meta_inclination": 86.2008,
        "meta_ra_of_asc_node": 1.7198,
        "meta_arg_of_pericenter": 4.5012,
        "meta_mean_anomaly": 355.6908,
        "meta_ephemeris_type": 0,
        "meta_classification_type": "U",
        "meta_norad_cat_id": 34097,
        "meta_element_set_no": 999,
        "meta_rev_at_epoch": 87109,
        "meta_bstar": 0.002168,
        "meta_mean_motion_dot": 6.405e-05,
        "meta_mean_motion_ddot": 0,
        "tle_line1": "1 34097U 97051DG  25346.03261449  .00006405  00000+0  21680-2 0  9997",
        "tle_line2": "2 34097  86.2008   1.7198 0082672   4.5012 355.6908 14.34767450871094"
      },
      "geometry": {
        "type": "Point",
        "coordinates": [
          178.83986713219613,
          35.47162456813393
        ]
      }
    },
    {
      "type": "Feature",
      "properties": {
        "norad_id": 34145,
        "name": "IRIDIUM 33 DEB",
        "group": "iridium-33-debris",
        "lat": 43.39789044585517,
        "lon": -23.734527667425308,
        "alt_km": 722.4236458186997,
        "timestamp": "2025-12-12T09:49:09.116949+00:00",
        "meta_object_name": "IRIDIUM 33 DEB",
        "meta_object_id": "1997-051DY",
        "meta_epoch": "2025-12-11T23:37:41.599200",
        "meta_mean_motion": 14.42279969,
        "meta_eccentricity": 0.0055694,
        "meta_inclination": 86.2122,
        "meta_ra_of_asc_node": 332.8629,
        "meta_arg_of_pericenter": 96.2305,
        "meta_mean_anomaly": 264.5244,
        "meta_ephemeris_type": 0,
        "meta_classification_type": "U",
        "meta_norad_cat_id": 34145,
        "meta_element_set_no": 999,
        "meta_rev_at_epoch": 87627,
        "meta_bstar": 0.0017354,
        "meta_mean_motion_dot": 5.852e-05,
        "meta_mean_motion_ddot": 0,
        "tle_line1": "1 34145U 97051DY  25345.98450925  .00005852  00000+0  17354-2 0  9991",
        "tle_line2": "2 34145  86.2122 332.8629 0055694  96.2305 264.5244 14.42279969876277"
      },
      "geometry": {
        "type": "Point",
        "coordinates": [
          -23.734527667425308,
          43.39789044585517
        ]
      }
    },
    {
      "type": "Feature",
      "properties": {
        "norad_id": 34146,
        "name": "IRIDIUM 33 DEB",
        "group": "iridium-33-debris",
        "lat": 33.587153418230905,
        "lon": -7.579781846905133,
        "alt_km": 744.597654086152,
        "timestamp": "2025-12-12T09:49:09.116960+00:00",
        "meta_object_name": "IRIDIUM 33 DEB",
        "meta_object_id": "1997-051DZ",
        "meta_epoch": "2025-12-11T23:59:18.754368",
        "meta_mean_motion": 14.49040748,
        "meta_eccentricity": 0.0025427,
        "meta_inclination": 86.284,
        "meta_ra_of_asc_node": 350.1275,
        "meta_arg_of_pericenter": 224.2485,
        "meta_mean_anomaly": 194.0777,
        "meta_ephemeris_type": 0,
        "meta_classification_type": "U",
        "meta_norad_cat_id": 34146,
        "meta_element_set_no": 999,
        "meta_rev_at_epoch": 88096,
        "meta_bstar": 0.0014807,
        "meta_mean_motion_dot": 5.661e-05,
        "meta_mean_motion_ddot": 0,
        "tle_line1": "1 34146U 97051DZ  25345.99952262  .00005661  00000+0  14807-2 0  9992",
        "tle_line2": "2 34146  86.2840 350.1275 0025427 224.2485 194.0777 14.49040748880965"
      },
      "geometry": {
        "type": "Point",
        "coordinates": [
          -7.579781846905133,
          33.587153418230905
        ]
      }
    },
    {
      "type": "Feature",
      "properties": {
        "norad_id": 34159,
        "name": "IRIDIUM 33 DEB",
        "group": "iridium-33-debris",
        "lat": 58.71136541695095,
        "lon": -137.64500228192833,
        "alt_km": 776.0946796742828,
        "timestamp": "2025-12-12T09:49:09.116970+00:00",
        "meta_object_name": "IRIDIUM 33 DEB",
        "meta_object_id": "1997-051EN",
        "meta_epoch": "2025-12-12T04:14:54.367296",
        "meta_mean_motion": 14.38492012,
        "meta_eccentricity": 0.0026045,
        "meta_inclination": 86.351,
        "meta_ra_of_asc_node": 48.4813,
        "meta_arg_of_pericenter": 289.8308,
        "meta_mean_anomaly": 70.0083,
        "meta_ephemeris_type": 0,
        "meta_classification_type": "U",
        "meta_norad_cat_id": 34159,
        "meta_element_set_no": 999,
        "meta_rev_at_epoch": 87951,
        "meta_bstar": 0.00065904,
        "meta_mean_motion_dot": 2.039e-05,
        "meta_mean_motion_ddot": 0,
        "tle_line1": "1 34159U 97051EN  25346.17701814  .00002039  00000+0  65904-3 0  9993",
        "tle_line2": "2 34159  86.3510  48.4813 0026045 289.8308  70.0083 14.38492012879512"
      },
      "geometry": {
        "type": "Point",
        "coordinates": [
          -137.64500228192833,
          58.71136541695095
        ]
      }
    }
  ]
}